IRIDIUM 144             
1 43249U 18030A   24244.94142605  .00000051  00000+0  11059-4 0  9996
2 43249  86.4008 203.8153 0002047  89.2032 270.9399 14.34216272336361
IRIDIUM 149             
1 43250U 18030B   24244.94776636  .00000617  00000+0  21340-3 0  9996
2 43250  86.4005 203.7872 0002242  92.3420 267.8033 14.34221309336389
IRIDIUM 157             
1 43251U 18030C   24244.61794905  .00000383  00000+0  12962-3 0  9990
2 43251  86.4004 203.9632 0002553  88.6289 271.5199 14.34222584336315
IRIDIUM 140             
1 43252U 18030D   24244.91605260  .00000362  00000+0  12206-3 0  9997
2 43252  86.4007 203.8532 0001981  82.1401 278.0019 14.34220906336416
IRIDIUM 145             
1 43253U 18030E   24244.62429171  .00000378  00000+0  12787-3 0  9992
2 43253  86.4003 203.9484 0001946  94.5736 265.5682 14.34221549336308
IRIDIUM 146             
1 43254U 18030F   24244.95410243  .00000928  00000+0  32428-3 0  9994
2 43254  86.4005 203.8255 0002242  88.6241 271.5212 14.34215650336369
IRIDIUM 148             
1 43255U 18030G   24244.43401750  .00000553  00000+0  19036-3 0  9995
2 43255  86.4006 204.0755 0002429  92.3670 267.7804 14.34220724336322
IRIDIUM 142             
1 43256U 18030H   24244.89067386  .00000964  00000+0  33713-3 0  9993
2 43256  86.4004 203.7978 0002020  93.9083 266.2344 14.34226379336354
